CCSDS_OMM_VERS = 2.0
CREATION_DATE  = 
ORIGINATOR     = 

OBJECT_NAME    = PROGRESS-MS 32
OBJECT_ID      = 2025-204A
CENTER_NAME    = EARTH
REF_FRAME      = TEME
TIME_SYSTEM    = UTC
MEAN_ELEMENT_THEORY = SGP/SGP4

EPOCH          = 2025-11-20T20:48:58.837824
MEAN_MOTION    = 15.48935269
ECCENTRICITY   = .00039608
INCLINATION    = 51.6324
RA_OF_ASC_NODE = 250.7347
ARG_OF_PERICENTER = 150.1460
MEAN_ANOMALY   = 209.9755

EPHEMERIS_TYPE = 0
CLASSIFICATION_TYPE = U
NORAD_CAT_ID   = 65586
ELEMENT_SET_NO = 999
REV_AT_EPOCH   = 27
BSTAR          = .26736525E-3
MEAN_MOTION_DOT = .14275E-3
MEAN_MOTION_DDOT = 0

CCSDS_OMM_VERS = 2.0
CREATION_DATE  = 
ORIGINATOR     = 

OBJECT_NAME    = CYGNUS NG-23
OBJECT_ID      = 2025-208A
CENTER_NAME    = EARTH
REF_FRAME      = TEME
TIME_SYSTEM    = UTC
MEAN_ELEMENT_THEORY = SGP/SGP4

EPOCH          = 2025-11-20T20:48:58.837824
MEAN_MOTION    = 15.48935269
ECCENTRICITY   = .00039608
INCLINATION    = 51.6324
RA_OF_ASC_NODE = 250.7347
ARG_OF_PERICENTER = 150.1460
MEAN_ANOMALY   = 209.9755

EPHEMERIS_TYPE = 0
CLASSIFICATION_TYPE = U
NORAD_CAT_ID   = 65616
ELEMENT_SET_NO = 999
REV_AT_EPOCH   = 22
BSTAR          = .26736525E-3
MEAN_MOTION_DOT = .14275E-3
MEAN_MOTION_DDOT = 0

CCSDS_OMM_VERS = 2.0
CREATION_DATE  = 
ORIGINATOR     = 

OBJECT_NAME    = DRAGONFLY
OBJECT_ID      = 1998-067XH
CENTER_NAME    = EARTH
REF_FRAME      = TEME
TIME_SYSTEM    = UTC
MEAN_ELEMENT_THEORY = SGP/SGP4

EPOCH          = 2025-11-22T00:39:59.946624
MEAN_MOTION    = 15.65145404
ECCENTRICITY   = .0005894
INCLINATION    = 51.6284
RA_OF_ASC_NODE = 241.2352
ARG_OF_PERICENTER = 163.5334
MEAN_ANOMALY   = 196.5853

EPHEMERIS_TYPE = 0
CLASSIFICATION_TYPE = U
NORAD_CAT_ID   = 65729
ELEMENT_SET_NO = 999
REV_AT_EPOCH   = 991
BSTAR          = .11533E-2
MEAN_MOTION_DOT = .117424E-2
MEAN_MOTION_DDOT = 0

CCSDS_OMM_VERS = 2.0
CREATION_DATE  = 
ORIGINATOR     = 

OBJECT_NAME    = 1998-067XJ
OBJECT_ID      = 1998-067XJ
CENTER_NAME    = EARTH
REF_FRAME      = TEME
TIME_SYSTEM    = UTC
MEAN_ELEMENT_THEORY = SGP/SGP4

EPOCH          = 2025-11-21T22:45:15.007968
MEAN_MOTION    = 15.86785806
ECCENTRICITY   = .0012259
INCLINATION    = 51.6215
RA_OF_ASC_NODE = 238.4169
ARG_OF_PERICENTER = 163.6916
MEAN_ANOMALY   = 196.4485

EPHEMERIS_TYPE = 0
CLASSIFICATION_TYPE = U
NORAD_CAT_ID   = 65730
ELEMENT_SET_NO = 999
REV_AT_EPOCH   = 994
BSTAR          = .24618E-2
MEAN_MOTION_DOT = .700115E-2
MEAN_MOTION_DDOT = 0

CCSDS_OMM_VERS = 2.0
CREATION_DATE  = 
ORIGINATOR     = 

OBJECT_NAME    = 1998-067XK
OBJECT_ID      = 1998-067XK
CENTER_NAME    = EARTH
REF_FRAME      = TEME
TIME_SYSTEM    = UTC
MEAN_ELEMENT_THEORY = SGP/SGP4

EPOCH          = 2025-11-22T00:35:15.207648
MEAN_MOTION    = 15.61490152
ECCENTRICITY   = .0006033
INCLINATION    = 51.6308
RA_OF_ASC_NODE = 241.9689
ARG_OF_PERICENTER = 138.3982
MEAN_ANOMALY   = 221.7472

EPHEMERIS_TYPE = 0
CLASSIFICATION_TYPE = U
NORAD_CAT_ID   = 65731
ELEMENT_SET_NO = 999
REV_AT_EPOCH   = 990
BSTAR          = .88248E-3
MEAN_MOTION_DOT = .77298E-3
MEAN_MOTION_DDOT = 0

CCSDS_OMM_VERS = 2.0
CREATION_DATE  = 
ORIGINATOR     = 

OBJECT_NAME    = RSP-03
OBJECT_ID      = 1998-067XL
CENTER_NAME    = EARTH
REF_FRAME      = TEME
TIME_SYSTEM    = UTC
MEAN_ELEMENT_THEORY = SGP/SGP4

EPOCH          = 2025-11-21T23:52:58.629792
MEAN_MOTION    = 15.63220415
ECCENTRICITY   = .0006845
INCLINATION    = 51.6289
RA_OF_ASC_NODE = 241.7695
ARG_OF_PERICENTER = 140.8293
MEAN_ANOMALY   = 219.3197

EPHEMERIS_TYPE = 0
CLASSIFICATION_TYPE = U
NORAD_CAT_ID   = 65732
ELEMENT_SET_NO = 999
REV_AT_EPOCH   = 991
BSTAR          = .10108E-2
MEAN_MOTION_DOT = .9505E-3
MEAN_MOTION_DDOT = 0

CCSDS_OMM_VERS = 2.0
CREATION_DATE  = 
ORIGINATOR     = 

OBJECT_NAME    = GHS-01
OBJECT_ID      = 1998-067XM
CENTER_NAME    = EARTH
REF_FRAME      = TEME
TIME_SYSTEM    = UTC
MEAN_ELEMENT_THEORY = SGP/SGP4

EPOCH          = 2025-11-22T00:08:55.946112
MEAN_MOTION    = 15.66561090
ECCENTRICITY   = .0006453
INCLINATION    = 51.6300
RA_OF_ASC_NODE = 241.0948
ARG_OF_PERICENTER = 161.3165
MEAN_ANOMALY   = 198.8069

EPHEMERIS_TYPE = 0
CLASSIFICATION_TYPE = U
NORAD_CAT_ID   = 65733
ELEMENT_SET_NO = 999
REV_AT_EPOCH   = 992
BSTAR          = .12832E-2
MEAN_MOTION_DOT = .13876E-2
MEAN_MOTION_DDOT = 0

CCSDS_OMM_VERS = 2.0
CREATION_DATE  = 
ORIGINATOR     = 

OBJECT_NAME    = YOTSUBA-KULOVER
OBJECT_ID      = 1998-067XN
CENTER_NAME    = EARTH
REF_FRAME      = TEME
TIME_SYSTEM    = UTC
MEAN_ELEMENT_THEORY = SGP/SGP4

EPOCH          = 2025-11-20T12:20:58.171488
MEAN_MOTION    = 15.56073445
ECCENTRICITY   = .00025128
INCLINATION    = 51.6311
RA_OF_ASC_NODE = 251.3817
ARG_OF_PERICENTER = 101.0931
MEAN_ANOMALY   = 259.0343

EPHEMERIS_TYPE = 0
CLASSIFICATION_TYPE = U
NORAD_CAT_ID   = 65941
ELEMENT_SET_NO = 999
REV_AT_EPOCH   = 639
BSTAR          = .81531473E-3
MEAN_MOTION_DOT = .57907E-3
MEAN_MOTION_DDOT = 0

CCSDS_OMM_VERS = 2.0
CREATION_DATE  = 
ORIGINATOR     = 

OBJECT_NAME    = BOTAN
OBJECT_ID      = 1998-067XP
CENTER_NAME    = EARTH
REF_FRAME      = TEME
TIME_SYSTEM    = UTC
MEAN_ELEMENT_THEORY = SGP/SGP4

EPOCH          = 2025-11-20T19:30:59.816448
MEAN_MOTION    = 15.57989430
ECCENTRICITY   = .00046576
INCLINATION    = 51.6307
RA_OF_ASC_NODE = 249.6268
ARG_OF_PERICENTER = 109.5809
MEAN_ANOMALY   = 250.5686

EPHEMERIS_TYPE = 0
CLASSIFICATION_TYPE = U
NORAD_CAT_ID   = 65942
ELEMENT_SET_NO = 999
REV_AT_EPOCH   = 644
BSTAR          = .10586324E-2
MEAN_MOTION_DOT = .81204E-3
MEAN_MOTION_DDOT = 0

CCSDS_OMM_VERS = 2.0
CREATION_DATE  = 
ORIGINATOR     = 

OBJECT_NAME    = E-KAGAKU-1
OBJECT_ID      = 1998-067XQ
CENTER_NAME    = EARTH
REF_FRAME      = TEME
TIME_SYSTEM    = UTC
MEAN_ELEMENT_THEORY = SGP/SGP4

EPOCH          = 2025-11-20T18:30:22.293504
MEAN_MOTION    = 15.56084359
ECCENTRICITY   = .00040785
INCLINATION    = 51.6314
RA_OF_ASC_NODE = 250.0966
ARG_OF_PERICENTER = 90.9518
MEAN_ANOMALY   = 269.1941

EPHEMERIS_TYPE = 0
CLASSIFICATION_TYPE = U
NORAD_CAT_ID   = 65943
ELEMENT_SET_NO = 999
REV_AT_EPOCH   = 643
BSTAR          = .80516874E-3
MEAN_MOTION_DOT = .57209E-3
MEAN_MOTION_DDOT = 0

CCSDS_OMM_VERS = 2.0
CREATION_DATE  = 
ORIGINATOR     = 

OBJECT_NAME    = HRC MONOBLOCK CAMERA
OBJECT_ID      = 1998-067XR
CENTER_NAME    = EARTH
REF_FRAME      = TEME
TIME_SYSTEM    = UTC
MEAN_ELEMENT_THEORY = SGP/SGP4

EPOCH          = 2025-11-21T23:56:35.195712
MEAN_MOTION    = 15.52351572
ECCENTRICITY   = .0004711
INCLINATION    = 51.6313
RA_OF_ASC_NODE = 244.7813
ARG_OF_PERICENTER = 101.7159
MEAN_ANOMALY   = 258.4360

EPHEMERIS_TYPE = 0
CLASSIFICATION_TYPE = U
NORAD_CAT_ID   = 66052
ELEMENT_SET_NO = 999
REV_AT_EPOCH   = 561
BSTAR          = .57487E-3
MEAN_MOTION_DOT = .35382E-3
MEAN_MOTION_DDOT = 0

CCSDS_OMM_VERS = 2.0
CREATION_DATE  = 
ORIGINATOR     = 

OBJECT_NAME    = HTV-X1
OBJECT_ID      = 2025-241A
CENTER_NAME    = EARTH
REF_FRAME      = TEME
TIME_SYSTEM    = UTC
MEAN_ELEMENT_THEORY = SGP/SGP4

EPOCH          = 2025-11-20T20:48:58.837824
MEAN_MOTION    = 15.48935269
ECCENTRICITY   = .00039608
INCLINATION    = 51.6324
RA_OF_ASC_NODE = 250.7347
ARG_OF_PERICENTER = 150.1460
MEAN_ANOMALY   = 209.9755

EPHEMERIS_TYPE = 0
CLASSIFICATION_TYPE = U
NORAD_CAT_ID   = 66174
ELEMENT_SET_NO = 999
REV_AT_EPOCH   = 145
BSTAR          = .26736525E-3
MEAN_MOTION_DOT = .14275E-3
MEAN_MOTION_DDOT = 0

