PROGRESS-MS 32          
1 65586U 25204A   25324.86734766  .00014275  00000+0  26737-3 0  9992
2 65586  51.6324 250.7347 0003960 150.1460 209.9755 15.48935269   274
CYGNUS NG-23            
1 65616U 25208A   25324.86734766  .00014275  00000+0  26737-3 0  9990
2 65616  51.6324 250.7347 0003960 150.1460 209.9755 15.48935269   223
DRAGONFLY               
1 65729U 98067XH  25326.02777716  .00117424  00000+0  11533-2 0  9997
2 65729  51.6284 241.2352 0005894 163.5334 196.5853 15.65145404  9918
1998-067XJ              
1 65730U 98067XJ  25325.94809037  .00700115  00000+0  24618-2 0  9994
2 65730  51.6215 238.4169 0012259 163.6916 196.4485 15.86785806  9940
1998-067XK              
1 65731U 98067XK  25326.02448157  .00077298  00000+0  88248-3 0  9996
2 65731  51.6308 241.9689 0006033 138.3982 221.7472 15.61490152  9909
RSP-03                  
1 65732U 98067XL  25325.99512303  .00095050  00000+0  10108-2 0  9992
2 65732  51.6289 241.7695 0006845 140.8293 219.3197 15.63220415  9910
GHS-01                  
1 65733U 98067XM  25326.00620308  .00138760  00000+0  12832-2 0  9993
2 65733  51.6300 241.0948 0006453 161.3165 198.8069 15.66561090  9920
YOTSUBA-KULOVER         
1 65941U 98067XN  25324.51456217  .00057907  00000+0  81531-3 0  9990
2 65941  51.6311 251.3817 0002512 101.0931 259.0343 15.56073445  6390
BOTAN                   
1 65942U 98067XP  25324.81319232  .00081204  00000+0  10586-2 0  9997
2 65942  51.6307 249.6268 0004657 109.5809 250.5686 15.57989430  6448
E-KAGAKU-1              
1 65943U 98067XQ  25324.77109136  .00057209  00000+0  80517-3 0  9993
2 65943  51.6314 250.0966 0004078  90.9518 269.1941 15.56084359  6439
HRC MONOBLOCK CAMERA    
1 66052U 98067XR  25325.99762958  .00035382  00000+0  57487-3 0  9995
2 66052  51.6313 244.7813 0004711 101.7159 258.4360 15.52351572  5612
HTV-X1                  
1 66174U 25241A   25324.86734766  .00014275  00000+0  26737-3 0  9997
2 66174  51.6324 250.7347 0003960 150.1460 209.9755 15.48935269  1459
